NORAD_CAT_ID,OBJECT_NAME,OBJECT_TYPE,EPOCH,MEAN_MOTION,ECCENTRICITY,INCLINATION,RA_OF_ASC_NODE,ARG_OF_PERICENTER,MEAN_ANOMALY,BSTAR,MEAN_MOTION_DOT,MEAN_MOTION_DDOT,TLE_LINE0,TLE_LINE1,TLE_LINE2,SEMIMAJOR_AXIS,PERIOD,APOGEE,PERIGEE,DECAYED
49415.0,STARLINK-3159,PAYLOAD,2021-11-27 14:00:01,15.77902623,0.0002014,53.2176,63.558,22.1913,302.0607,-0.0052453999999999,-0.00822981,0.0,0 STARLINK-3159,1 49415U 21104H   21331.58334491 -.00822981  00000-0 -52454-2 0  9992,2 49415  53.2176  63.5580 0002014  22.1913 302.0607 15.77902623  2878,6714.521,91.26,337.73800000000006,335.034,0.0
49415.0,STARLINK-3159,PAYLOAD,2021-11-27 22:00:00,15.77315553,0.0001399,53.2173,61.8966,36.6819,21.7893,-0.0053681999999999,-0.00820321,0.0,0 STARLINK-3159,1 49415U 21104H   21331.91667824 -.00820321  00000-0 -53682-2 0  9998,2 49415  53.2173  61.8966 0001399  36.6819  21.7893 15.77315553  2922,6716.187,91.294,338.992,337.112,0.0
49415.0,STARLINK-3159,PAYLOAD,2021-11-28 06:00:02,15.76728955,0.0001723,53.2175,60.2366,35.1492,116.9023,-0.0054916,-0.00817778,0.0,0 STARLINK-3159,1 49415U 21104H   21332.25002315 -.00817778  00000-0 -54916-2 0  9997,2 49415  53.2175  60.2366 0001723  35.1492 116.9023 15.76728955  3604,6717.853,91.328,340.875,338.56,0.0
49415.0,STARLINK-3159,PAYLOAD,2021-11-28 14:00:01,15.76143927,0.0001696999999999,53.2173,58.5814,36.7422,208.0525,-0.0056574,-0.00820526,0.0,0 STARLINK-3159,1 49415U 21104H   21332.58334491 -.00820526  00000-0 -56574-2 0  9993,2 49415  53.2173  58.5814 0001697  36.7422 208.0525 15.76143927  3037,6719.515,91.362,342.52,340.24,0.0
49415.0,STARLINK-3159,PAYLOAD,2021-11-28 22:00:01,15.75558724,0.0001243,53.2174,56.9241,44.2476,292.7193,-0.0058121,-0.00821188,0.0,0 STARLINK-3159,1 49415U 21104H   21332.91668981 -.00821188  00000-0 -58121-2 0  9999,2 49415  53.2174  56.9241 0001243  44.2476 292.7193 15.75558724  3084,6721.179,91.396,343.879,342.208,0.0
49415.0,STARLINK-3159,PAYLOAD,2021-11-29 06:00:00,15.74851673,0.0001522,53.2174,55.2682,28.0678,40.2983,-0.0047155,-0.00658601,0.0,0 STARLINK-3159,1 49415U 21104H   21333.25001157 -.00658601  00000-0 -47155-2 0  9996,2 49415  53.2174  55.2682 0001522  28.0678  40.2983 15.74851673  3754,6723.19,91.437,346.079,344.032,0.0
49415.0,STARLINK-3159,PAYLOAD,2021-11-29 14:00:01,15.74385019,0.0001902,53.2176,53.6176,30.6964,128.3048,-0.0060878999999999,-0.00817522,0.0,0 STARLINK-3159,1 49415U 21104H   21333.58334491 -.00817522  00000-0 -60879-2 0  9999,2 49415  53.2176  53.6176 0001902  30.6964 128.3048 15.74385019  3818,6724.519,91.464,347.663,345.105,0.0
49415.0,STARLINK-3159,PAYLOAD,2021-11-29 22:00:00,15.73735004,0.0001418,53.2174,51.9644,52.3075,196.7009,-0.0049716,-0.00661176,0.0,0 STARLINK-3159,1 49415U 21104H   21333.91667824 -.00661176  00000-0 -49716-2 0  9994,2 49415  53.2174  51.9644 0001418  52.3075 196.7009 15.73735004  3248,6726.37,91.502,349.189,347.281,0.0
49415.0,STARLINK-3159,PAYLOAD,2021-11-30 06:00:00,15.73205413,0.0001295,53.2175,50.3136,55.3397,282.9485,-1.0461e-05,-2.088e-05,0.0,0 STARLINK-3159,1 49415U 21104H   21334.25001157 -.00002088  00000-0 -10461-4 0  9991,2 49415  53.2175  50.3136 0001295  55.3397 282.9485 15.73205413  3917,6727.88,91.533,350.616,348.87300000000016,0.0
49415.0,STARLINK-3159,PAYLOAD,2021-11-30 10:00:00,15.73203544,0.0001431999999999,53.2174,49.49,49.7993,152.9561,1.1853e-05,1.044e-05,0.0,0 STARLINK-3159,1 49415U 21104H   21334.41667824  .00001044  00000-0  11853-4 0  9993,2 49415  53.2174  49.4900 0001432  49.7993 152.9561 15.73203544  3325,6727.885,91.533,350.714,348.787,0.0
49415.0,STARLINK-3159,PAYLOAD,2021-11-30 20:00:01,15.73205807,0.0001319,53.2172,47.4281,48.2167,355.7056,-1.6937e-05,-2.997e-05,0.0,0 STARLINK-3159,1 49415U 21104H   21334.83334491 -.00002997  00000-0 -16937-4 0  9998,2 49415  53.2172  47.4281 0001319  48.2167 355.7056 15.73205807  3397,6727.879,91.533,350.631,348.856,0.0
49415.0,STARLINK-3159,PAYLOAD,2021-12-02 06:00:00,15.75310435,0.0001928,53.2185,40.3806,35.7577,133.9445,-0.00041907,-0.00064592,0.0,0 STARLINK-3159,1 49415U 21104H   21336.25001157 -.00064592  00000-0 -41907-3 0  9999,2 49415  53.2185  40.3806 0001928  35.7577 133.9445 15.75310435  4236,6721.885,91.411,345.046,342.454,0.0
49415.0,STARLINK-3159,PAYLOAD,2021-12-02 14:00:01,15.75247691,0.0002066,53.2186,38.7282,25.4302,235.6831,-0.00011864,-0.00018794,0.0,0 STARLINK-3159,1 49415U 21104H   21336.58334491 -.00018794  00000-0 -11864-3 0  9997,2 49415  53.2186  38.7282 0002066  25.4302 235.6831 15.75247691  3682,6722.063,91.414,345.31699999999995,342.54,0.0
49415.0,STARLINK-3159,PAYLOAD,2021-12-02 22:00:00,15.75199593,0.0001898,53.2188,37.072,25.1694,327.3269,0.00017722,0.00026564,0.0,0 STARLINK-3159,1 49415U 21104H   21336.91667824  .00026564  00000-0  17722-3 0  9994,2 49415  53.2188  37.0720 0001898  25.1694 327.3269 15.75199593  3722,6722.2,91.417,345.341,342.789,0.0
49415.0,STARLINK-3159,PAYLOAD,2021-12-03 14:00:01,15.75155801,0.0002338,53.2187,33.765,29.9887,145.1936,0.00052394,0.00080146,0.0,0 STARLINK-3159,1 49415U 21104H   21337.58334491  .00080146  00000-0  52394-3 0  9999,2 49415  53.2187  33.7650 0002338  29.9887 145.1936 15.75155801  4443,6722.325,91.42,345.76199999999994,342.61800000000005,0.0
49415.0,STARLINK-3159,PAYLOAD,2021-12-03 22:00:00,15.75190697,0.0002151,53.2184,32.1091,33.2503,233.232,0.00016092,0.00024045,0.0,0 STARLINK-3159,1 49415U 21104H   21337.91667824  .00024045  00000-0  16092-3 0  9996,2 49415  53.2184  32.1091 0002151  33.2503 233.2320 15.75190697  4491,6722.226,91.418,345.537,342.645,0.0
49415.0,STARLINK-3159,PAYLOAD,2021-12-04 06:00:00,15.75246107,0.000216,53.2184,30.4549,35.4311,322.3902,7.464e-05,0.00010819,0.0,0 STARLINK-3159,1 49415U 21104H   21338.25001157  .00010819  00000-0  74640-4 0  9993,2 49415  53.2184  30.4549 0002160  35.4311 322.3902 15.75246107  4541,6722.068,91.414,345.385,342.481,0.0
49415.0,STARLINK-3159,PAYLOAD,2021-12-04 22:00:00,15.75261274,0.0002234,53.2186,27.1456,33.7447,146.8597,0.00027791,0.00042214,0.0,0 STARLINK-3159,1 49415U 21104H   21338.91667824  .00042214  00000-0  27791-3 0  9993,2 49415  53.2186  27.1456 0002234  33.7447 146.8597 15.75261274  3704,6722.025,91.413,345.391,342.3880000000001,0.0
49415.0,STARLINK-3159,PAYLOAD,2021-12-05 06:00:02,15.753345199999998,0.0002249,53.2187,25.4914,34.4777,237.6066,-0.00068913,-0.00105418,0.0,0 STARLINK-3159,1 49415U 21104H   21339.25002315 -.00105418  00000-0 -68913-3 0  9998,2 49415  53.2187  25.4914 0002249  34.4777 237.6066 15.75334520  4701,6721.816,91.409,345.1930000000001,342.17,0.0
49415.0,STARLINK-3159,PAYLOAD,2021-12-05 14:00:01,15.75225232,0.0002435,53.2179,23.8396,29.1233,334.3439,0.00049959,0.00076593,0.0,0 STARLINK-3159,1 49415U 21104H   21339.58334491  .00076593  00000-0  49959-3 0  9995,2 49415  53.2179  23.8396 0002435  29.1233 334.3439 15.75225232  3733,6722.127,91.415,345.629,342.355,0.0
49415.0,STARLINK-3159,PAYLOAD,2021-12-05 22:00:00,15.75398795,0.0002161,53.2177,22.185,28.8113,66.0278,-0.0028037,-0.00413067,0.0,0 STARLINK-3159,1 49415U 21104H   21339.91667824 -.00413067  00000-0 -28037-2 0  9997,2 49415  53.2177  22.1850 0002161  28.8113  66.0278 15.75398795  4801,6721.634,91.405,344.951,342.046,0.0
49415.0,STARLINK-3159,PAYLOAD,2021-12-06 14:00:01,15.74745636,0.0001891,53.2173,18.8816,26.5321,250.8219,-0.005967,-0.00814336,0.0,0 STARLINK-3159,1 49415U 21104H   21340.58335648 -.00814336  00000-0 -59670-2 0  9999,2 49415  53.2173  18.8816 0001891  26.5321 250.8219 15.74745636  4915,6723.4919999999975,91.443,346.629,344.086,0.0
49415.0,STARLINK-3159,PAYLOAD,2021-12-06 22:00:00,15.74161529,0.000192,53.2175,17.2269,21.1535,346.5655,-0.0061563999999999,-0.00818599,0.0,0 STARLINK-3159,1 49415U 21104H   21340.91667824 -.00818599  00000-0 -61564-2 0  9990,2 49415  53.2175  17.2269 0001920  21.1535 346.5655 15.74161529  3721,6725.155,91.477,348.311,345.72900000000016,0.0
49415.0,STARLINK-3159,PAYLOAD,2021-12-07 14:00:01,15.73203074,0.0001595999999999,53.2172,13.9278,348.6404,197.8767,2.3324e-05,2.654e-05,0.0,0 STARLINK-3159,1 49415U 21104H   21341.58334491  .00002654  00000-0  23324-4 0  9994,2 49415  53.2172  13.9278 0001596 348.6404 197.8767 15.73203074  5074,6727.886,91.533,350.825,348.67800000000005,0.0
49415.0,STARLINK-3159,PAYLOAD,2021-12-07 22:00:00,15.73204241,0.0001302,53.2174,12.2762,7.3844,268.068,4.1624e-06,-3.6e-07,0.0,0 STARLINK-3159,1 49415U 21104H   21341.91667824 -.00000036  00000-0  41624-5 0  9997,2 49415  53.2174  12.2762 0001302   7.3844 268.0680 15.73204241  3719,6727.8830000000025,91.533,350.624,348.872,0.0
49415.0,STARLINK-3159,PAYLOAD,2021-12-08 06:00:02,15.73207875,0.0001344,53.2184,10.6217,4.8242,359.5481,-0.00011692,-0.00017001,0.0,0 STARLINK-3159,1 49415U 21104H   21342.25002315 -.00017001  00000-0 -11692-3 0  9994,2 49415  53.2184  10.6217 0001344   4.8242 359.5481 15.73207875  5170,6727.873000000001,91.533,350.642,348.833,0.0
49415.0,STARLINK-3159,PAYLOAD,2021-12-08 14:00:01,15.73191265,0.0001587,53.2183,8.9734,3.8311,89.4065,0.00034718,0.00048367,0.0,0 STARLINK-3159,1 49415U 21104H   21342.58334491  .00048367  00000-0  34718-3 0  9994,2 49415  53.2183   8.9734 0001587   3.8311  89.4065 15.73191265  3718,6727.92,91.534,350.853,348.717,0.0
49415.0,STARLINK-3159,PAYLOAD,2021-12-08 22:00:00,15.73191837,0.0001384,53.2187,7.3218,4.7441,177.4356,0.00042342,0.00059203,0.0,0 STARLINK-3159,1 49415U 21104H   21342.91667824  .00059203  00000-0  42342-3 0  9993,2 49415  53.2187   7.3218 0001384   4.7441 177.4356 15.73191837  5281,6727.918000000002,91.534,350.715,348.852,0.0
49415.0,STARLINK-3159,PAYLOAD,2021-12-09 10:57:03,15.73233861,0.0001484,53.2194,4.6526,16.4795,343.6273,0.00015525,0.00021255,0.0,0 STARLINK-3159,1 49415U 21104H   21343.45629291  .00021255  00000-0  15525-3 0  9998,2 49415  53.2194   4.6526 0001484  16.4795 343.6273 15.73233861  5362,6727.799,91.531,350.662,348.665,0.0
